OSCAR 7 (AO-7)          
1 07530U 74089B   26202.04759888 -.00000048  00000+0 -11257-4 0  9997
2 07530 101.9907 215.6472 0012625  67.5516 311.3823 12.53698642364760
PHASE 3B (AO-10)        
1 14129U 83058B   26201.38696919 -.00000023  00000+0  00000+0 0  9997
2 14129  25.9413 214.0974 5999765 124.7892 306.9505  2.05870004296172
UOSAT 2 (UO-11)         
1 14781U 84021B   26202.18328503  .00001007  00000+0  10789-3 0  9993
2 14781  97.8081 167.3844 0009162  74.7990 285.4241 14.90858546262199
LUSAT (LO-19)           
1 20442U 90005G   26202.29875342  .00000055  00000+0  36167-4 0  9994
2 20442  98.8846 225.0431 0012663 105.0161 255.2425 14.34131879907288
EYESAT A (AO-27)        
1 22825U 93061C   26202.12259661  .00000047  00000+0  34773-4 0  9990
2 22825  98.6862 269.5207 0008413   9.0076 351.1256 14.30950164711857
ITAMSAT (IO-26)         
1 22826U 93061D   26202.16178107  .00000038  00000+0  31084-4 0  9992
2 22826  98.6811 269.4809 0008596 351.6413   8.4625 14.31377843712178
RADIO ROSTO (RS15)      
1 23439U 94085A   26202.17258936 -.00000048  00000+0 -14829-3 0  9990
2 23439  64.8143 248.2534 0157146 357.6057   2.4099 11.27583642299737
JAS-2 (FO-29)           
1 24278U 96046B   26202.09833723 -.00000049  00000+0 -13072-4 0  9996
2 24278  98.5217  46.3218 0350075   8.6387 352.0572 13.53275824477757
TECHSAT 1B (GO-32)      
1 25397U 98043D   26202.27265565  .00000032  00000+0  34150-4 0  9991
2 25397  99.0091 195.8944 0002314 105.1892 254.9542 14.24434116456187
ISS (ZARYA)             
1 25544U 98067A   26202.18553447  .00005896  00000+0  11479-3 0  9991
2 25544  51.6316 131.8443 0006849 320.6461  39.4029 15.49071756577020
PCSAT (NO-44)           
1 26931U 01043C   26202.10404208  .00000083  00000+0  62013-4 0  9996
2 26931  67.0501 156.5465 0005868 267.0470  92.9960 14.31966593295308
SAUDISAT 1C (SO-50)     
1 27607U 02058C   26201.93815510  .00000570  00000+0  84993-4 0  9998
2 27607  64.5521  24.5545 0074346 256.2283 103.0541 14.83105633269469
CUTE-1 (CO-55)          
1 27844U 03031E   26201.96672872  .00000174  00000+0  94328-4 0  9991
2 27844  98.6745 210.1018 0010867  87.8923 272.3500 14.24353883196486
CUBESAT XI-IV (CO-57)   
1 27848U 03031J   26201.48019381  .00000116  00000+0  70115-4 0  9996
2 27848  98.6776 209.3071 0010684 105.6000 254.6359 14.23636281196115
MOZHAETS 4 (RS22)       
1 27939U 03042A   26202.31314934  .00000603  00000+0  10096-3 0  9996
2 27939  98.3485  27.6382 0011718 154.2383 330.6615 14.73520396220571
CUBESAT XI-V            
1 28895U 05043F   26202.17094906  .00000918  00000+0  15197-3 0  9995
2 28895  98.3023 358.5148 0015350  97.8610 262.4340 14.72712305106750
CUTE-1.7+APD II (CO-65) 
1 32785U 08021C   26202.25240068  .00003202  00000+0  20264-3 0  9998
2 32785  97.8299 184.3912 0006868 273.8656  86.1787 15.09732669990333
SEEDS II (CO-66)        
1 32791U 08021J   26202.26652464  .00014024  00000+0  43124-3 0  9997
2 32791  97.7538 201.8220 0003720 144.0611 216.0881 15.33799025992513
YUBILEINY (RS30)        
1 32953U 08025A   26202.30164872  .00000087  00000+0  55248-3 0  9991
2 32953  82.5071 334.2189 0018768 234.9807 124.9511 12.43181162823937
KKS-1 (KISEKI)          
1 33499U 09002H   26202.25864612  .00000834  00000+0  10889-3 0  9998
2 33499  98.1170 125.2405 0007915 169.1403 190.9983 14.83198668941244
SWISSCUBE               
1 35932U 09051B   26202.17141100  .00000657  00000+0  13918-3 0  9996
2 35932  98.4001 110.6478 0008058 103.2004 257.0097 14.62538143894125
BEESAT-1                
1 35933U 09051C   26202.19863883  .00000544  00000+0  11884-3 0  9993
2 35933  98.3928 110.2394 0006421 114.2759 245.9113 14.61768115894158
ITUPSAT1                
1 35935U 09051E   26202.21936033  .00000500  00000+0  11302-3 0  9993
2 35935  98.4011 109.4157 0008413 126.3913 233.8064 14.60484544893701
XIWANG-1 (HOPE-1)       
1 36122U 09072B   26202.29148267  .00000323  00000+0  96158-3 0  9992
2 36122 100.4044 155.5817 0007713 151.0751 209.0791 13.16441904797496
O/OREOS (USA 219)       
1 37224U 10062C   26201.88036302  .00001247  00000+0  12317-3 0  9998
2 37224  71.9703   4.0077 0014379 354.1341   5.9659 14.93865000121677
JUGNU                   
1 37839U 11058B   26202.12079861  .00000384  00000+0  60843-4 0  9990
2 37839  19.9605 102.2612 0018637  91.5002  56.3743 14.13784698763834
SRMSAT                  
1 37841U 11058D   26202.30209510  .00000342  00000+0  41537-4 0  9992
2 37841  19.9702 212.9798 0011593 218.6587 248.7511 14.11581882762649
STRAND-1                
1 39090U 13009E   26202.24008484  .00000187  00000+0  77109-4 0  9999
2 39090  98.3940  21.6393 0009677 124.9348 235.2749 14.37181250701956
ZACUBE-1 (TSHEPISOSAT)  
1 39417U 13066B   26201.86646474  .00001847  00000+0  14537-3 0  9998
2 39417  97.7999 164.3670 0044079 137.0238 223.4444 15.01347026685787
GOMX-1                  
1 39430U 13066Q   26202.23110694  .00000472  00000+0  78216-4 0  9993
2 39430  97.6466  40.5453 0127734 328.7699  30.5962 14.69549525674910
